aircraft_registration_number,flight_delay_yn,flight_delay_time,aircraft_model,aircraft_msn_serial_number,original_delivery_date,flight_number,departure_city,departure_airport_icao_code,arrival_city,arrival_airport_icao_code,scheduled_departure_time,actual_departure_time,scheduled_arrival_time,actual_arrival_time,departure_temperature_f,departure_dew_point,departure_relative_humidity,departure_pressure,departure_weather_conditions,arrival_temperature,arrival_dew_point,arrival_relative_humidity,arrival_pressure,arrival_weather_conditions,passenger_count_per_flight,aw_ac_id,market_cat,aircraft_manufacture_date,load_date
5H-TCH,,,BD-500-1A11 (A220-300),55047,00:00.0,No Arrivals Today,Mwanza,HTMW,Mwanza,HTMW,59:00.0,59:00.0,59:00.0,59:00.0,,,,,,,,,,,,237145,C,12/12/2018,10/8/2019
5H-TCI,,,BD-500-1A11 (A220-300),55048,00:00.0,,,,Nyalikungu,HTMC,,22:12.0,,59:41.0,,,,,,,,,,,,237146,C,12/23/2018,10/8/2019
5H-TCI,,,BD-500-1A11 (A220-300),55048,00:00.0,,Nyalikungu,HTMC,Dar es Salaam,HTDA,,34:18.0,,16:26.0,,,,,,78.8,75.2,88.75,30,HTDA 060600Z 13008KT 9999 SCT012 SCT013 26/24 Q1016 NOSIG,,237146,C,12/23/2018,10/8/2019
5H-TCI,Y,29,BD-500-1A11 (A220-300),55048,00:00.0,TC214,Dar es Salaam,HTDA,Hai,HTKJ,35:00.0,04:48.0,30:00.0,30:49.0,86,73.4,66.15,29.97,HTDA 060800Z 09013KT 9999 FEW022 BKN024 30/23 Q1015 NOSIG,,,,,,,237146,C,12/23/2018,10/8/2019
5H-TCI,,,BD-500-1A11 (A220-300),55048,00:00.0,,Hai,HTKJ,Entebbe,HUEN,,30:54.0,,03:20.0,,,,,,,,,,,,237146,C,12/23/2018,10/8/2019
5H-TCI,,,BD-500-1A11 (A220-300),55048,00:00.0,,Entebbe,HUEN,Hai,HTKJ,,49:52.0,,34:39.0,,,,,,,,,,,,237146,C,12/23/2018,10/8/2019
5H-TCI,,,BD-500-1A11 (A220-300),55048,00:00.0,,Hai,HTKJ,Dar es Salaam,HTDA,,13:26.0,,45:45.0,,,,,,84.2,73.4,70.08,29.88,HTDA 061400Z 09014KT 9999 FEW022 SCT024 29/23 Q1012 NOSIG,,237146,C,12/23/2018,10/8/2019
5H-TCI,Y,38,BD-500-1A11 (A220-300),55048,00:00.0,TC102,Dar es Salaam,HTDA,Mwanza,HTMW,45:00.0,23:47.0,15:00.0,56:54.0,77,73.4,88.67,29.94,HTDA 061700Z 13005KT 9999 FEW016 25/23 Q1014 NOSIG,,,,,,,237146,C,12/23/2018,10/8/2019
5H-TCI,,,BD-500-1A11 (A220-300),55048,00:00.0,,Mwanza,HTMW,Dar es Salaam,HTDA,,30:49.0,,05:54.0,,,,,,75.2,73.4,94.14,29.94,HTDA 062000Z 17004KT 9999 FEW012 24/23 Q1014 NOSIG,,237146,C,12/23/2018,10/8/2019
C-FBCS,,,BD-500-1A10 (A220-100),50001,,STORED,Wichita,KIAB,Wichita,KIAB,59:00.0,59:00.0,59:00.0,59:00.0,,,,,,,,,,,,67165,C,9/16/2013,10/8/2019
C-FFCO,,,BD-500-1A10 (A220-100),50006,,STORED,Topeka,,Topeka,,59:00.0,59:00.0,59:00.0,59:00.0,,,,,,,,,,,,158337,C,10/30/2015,10/8/2019
C-FFDK,,,BD-500-1A11 (A220-300),55001,,No Arrivals Today,Wichita,KICT,Wichita,KICT,59:00.0,59:00.0,59:00.0,59:00.0,,,,,,,,,,,,67170,C,2/27/2015,10/8/2019
C-FFDO,,,BD-500-1A11 (A220-300),55002,,No Arrivals Today,McConnell Air Force Base,KIAB,McConnell Air Force Base,KIAB,59:00.0,59:00.0,59:00.0,59:00.0,,,,,,,,,,,,161658,C,3/3/2016,10/8/2019
9S-CDC,,,727- 30(W),18934,00:00.0,Unable to Locate Aircraft,,,,,59:00.0,59:00.0,59:00.0,59:00.0,,,,,,,,,,,,25652,C,12/16/1965,10/8/2019
C-FOZG,,,BD-500-1A10 (A220-100),50019,,Unable to Locate Aircraft,,,,,59:00.0,59:00.0,59:00.0,59:00.0,,,,,,,,,,,,169211,C,10/1/2017,10/8/2019
N30MP,,,727- 21,18998,00:00.0,,Phoenix,KPHX,Long Beach,KLGB,,20:30.0,,26:57.0,90,39,16.74,30.01,KPHX 061851Z 09005KT 10SM SCT250 32/04 A3001 RMK AO2 SLP145 T03220039 $,84.9,52,32.24,29.96,KLGB 062053Z 19007KT 10SM CLR 29/11 A2996 RMK AO2 SLP145 T02940111 58022 $,,25680,B,2/7/1966,10/8/2019
N30MP,,,727- 21,18998,00:00.0,,Long Beach,KLGB,Chino,KCNO,,34:58.0,,48:36.0,88,45,22.47,29.94,KLGB 062153Z 21007KT 10SM CLR 31/07 A2994 RMK AO2 SLP138 T03110072 $,,,,,,,25680,B,2/7/1966,10/8/2019
C-FPHB,,,BD-500-1A10 (A220-100),50009,,STORED,Montreal,CYMX,Montreal,CYMX,59:00.0,59:00.0,59:00.0,59:00.0,,,,,,,,,,,,223532,C,12/1/2015,10/8/2019
VP-BAP,,,727- 21,19260,00:00.0,,Malaga,LEMG,Tunis,DTTA,,25:30.0,,19:49.0,71.6,66.2,83.09,30.03,LEMG 061530Z 10007KT 070V140 CAVOK 22/19 Q1017 NOSIG,73.4,60.8,64.69,29.97,DTTA 061730Z 25010KT 230V290 9999 FEW026 23/16 Q1015,,25826,B,4/18/1967,10/8/2019
C-GWXK,,,BD-500-1A10 (A220-100),50004,,STORED,Wichita,KIAB,Wichita,KIAB,59:00.0,59:00.0,59:00.0,59:00.0,,,,,,,,,,,,67168,C,9/15/2014,10/8/2019
C-GWXZ,,,BD-500-1A10 (A220-100),50005,,STORED,McConnell Air Force Base,KIAB,McConnell Air Force Base,KIAB,59:00.0,59:00.0,59:00.0,59:00.0,,,,,,,,,,,,67169,C,3/18/2015,10/8/2019
N311AG,,,727- 17(W),20512,00:00.0,No Arrivals Today,McClellan Park,KMCC,McClellan Park,KMCC,59:00.0,59:00.0,59:00.0,59:00.0,,,,,,,,,,,,26312,B,2/2/1971,10/8/2019
C-GWYD,,,BD-500-1A10 (A220-100),50002,,No Arrivals Today,McConnell Air Force Base,KIAB,McConnell Air Force Base,KIAB,59:00.0,59:00.0,59:00.0,59:00.0,,,,,,,,,,,,67166,C,1/3/2014,10/8/2019
6V-AEF,,,727-2M1(W),21091,00:00.0,No Arrivals Today,Ingenio,GCLP,Ingenio,GCLP,59:00.0,59:00.0,59:00.0,59:00.0,,,,,,,,,,,,26623,C,5/16/1975,10/8/2019
XT-BFA,,,727-282(W),22430,00:00.0,No Arrivals Today,North Kingstown,KOQU,North Kingstown,KOQU,59:00.0,59:00.0,59:00.0,59:00.0,,,,,,,,,,,,27198,C,1/14/1981,10/8/2019
N289MT,,,727-223,22467,00:00.0,No Arrivals Today,Ontario,KONT,Ontario,KONT,59:00.0,59:00.0,59:00.0,59:00.0,,,,,,,,,,,,27222,C,6/5/1981,10/8/2019
M-STAR,,,727-2X8(W),22687,00:00.0,No Arrivals Today,Saint-Antheme,LFHT,Saint-Antheme,LFHT,59:00.0,59:00.0,59:00.0,59:00.0,,,,,,,,,,,,27285,B,10/7/1981,10/8/2019
G-OSRB,,,727-2S2F,22929,00:00.0,No Arrivals Today,East Riding of Yorkshire,EGCF,East Riding of Yorkshire,EGCF,59:00.0,59:00.0,59:00.0,59:00.0,,,,,,,,,,,,27297,C,9/22/1983,10/8/2019
HB-JBI,Y,1329,BD-500-1A10 (A220-100),50018,00:00.0,LX1612,Kloten,LSZH,Provincia di Varese,LIMC,20:00.0,29:36.0,15:00.0,39:38.0,48.2,46.4,93.45,30.03,LSZH 060520Z VRB01KT 7000 FEW006 BKN007 BKN009 09/08 Q1017 NOSIG,55.4,53.6,93.65,29.97,LIMC 060650Z 01005KT 6000 NSC 13/12 Q1015 NOSIG,,169210,C,10/1/2017,10/8/2019
HB-JBI,Y,17,BD-500-1A10 (A220-100),50018,00:00.0,LX1613,Provincia di Varese,LIMC,Kloten,LSZH,05:00.0,22:55.0,10:00.0,04:41.0,60.8,53.6,77.14,30,LIMC 060820Z 36003KT 9000 SCT050 16/12 Q1016 NOSIG,51.8,50,93.55,30,LSZH 060950Z VRB02KT 8000 SCT004 SCT007 BKN018 11/10 Q1016 NOSIG,,169210,C,10/1/2017,10/8/2019
HB-JBI,N,,BD-500-1A10 (A220-100),50018,00:00.0,LX1380,Kloten,LSZH,Gdansk,EPGD,55:00.0,04:41.0,45:00.0,49:08.0,51.8,50,93.55,30,LSZH 060950Z VRB02KT 8000 SCT004 SCT007 BKN018 11/10 Q1016 NOSIG,42.8,39.2,86.99,30.12,EPGD 061200Z 36003KT 300V080 9999 -SHRA FEW016CB BKN023 06/04 Q1020,,169210,C,10/1/2017,10/8/2019
HB-JBI,N,,BD-500-1A10 (A220-100),50018,00:00.0,LX1381,Gdansk,EPGD,Kloten,LSZH,25:00.0,38:13.0,25:00.0,37:57.0,44.6,39.2,81.2,30.12,EPGD 061230Z 30004KT 250V350 9999 FEW014CB SCT029 07/04 Q1020,55.4,53.6,93.65,29.88,LSZH 061650Z 32005KT 9999 -SHRA FEW009 BKN020 13/12 Q1012 TEMPO SHRA,,169210,C,10/1/2017,10/8/2019
HB-JBI,N,,BD-500-1A10 (A220-100),50018,00:00.0,LX978,Kloten,LSZH,Berlin,EDDT,25:00.0,38:30.0,50:00.0,50:29.0,55.4,53.6,93.65,29.88,LSZH 061650Z 32005KT 9999 -SHRA FEW009 BKN020 13/12 Q1012 TEMPO SHRA,44.6,37.4,75.67,30.09,EDDT 061750Z 05004KT CAVOK 07/03 Q1019 NOSIG,,169210,C,10/1/2017,10/8/2019
HB-JBI,Y,24,BD-500-1A10 (A220-100),50018,00:00.0,LX979,Berlin,EDDT,Kloten,LSZH,30:00.0,54:42.0,55:00.0,54:55.0,42.8,37.4,81.07,30.09,EDDT 061850Z 07003KT 030V100 CAVOK 06/03 Q1019 NOSIG,53.6,50,87.56,29.85,LSZH 062050Z 25010KT 7000 -SHRA FEW007 SCT030 BKN060 12/10 Q1011 TEMPO 4000 SHRA,,169210,C,10/1/2017,10/8/2019
G-OSRA,,,727-2S2F,22938,00:00.0,No Arrivals Today,Finningley,,Finningley,,59:00.0,59:00.0,59:00.0,59:00.0,,,,,,,,,,,,27306,C,8/3/1984,10/8/2019
N444HE,,,737-39A(W),23800,00:00.0,No Arrivals Today,Rabigh,OERB,Rabigh,OERB,59:00.0,59:00.0,59:00.0,59:00.0,,,,,,,,,,,,28837,B,6/5/1987,10/8/2019
P4-NOF,,,737-4Y0,23976,00:00.0,No Arrivals Today,Saint-Louis,LFSB,Saint-Louis,LFSB,59:00.0,59:00.0,59:00.0,59:00.0,,,,,,,,,,,,28936,C,11/16/1988,10/8/2019
N788LS,,,737-3L9,24220,00:00.0,,New Territories,VHHH,Singapore,WSSS,,49:05.0,,29:05.0,75.2,71.6,88.59,29.94,VHHH 060648Z 09015KT 6000 SHRA FEW015CB FEW018 SCT028 24/22 Q1014 RERA TEMPO VRB25G35KT 3500 -TSRA SHRA FEW012CB SCT025 BKN040,80.6,73.4,78.76,29.8,WSSS 061030Z 16005KT 120V210 9999 FEW018 SCT140 27/23 Q1009 NOSIG,,29036,C,8/3/1988,10/8/2019
N788LS,,,737-3L9,24220,00:00.0,,Singapore,WSSS,Subang Airport,WMSA,,38:50.0,,27:49.0,80.6,75.2,83.66,29.8,WSSS 061130Z VRB01KT 9999 FEW018 SCT270 27/24 Q1009 NOSIG,80.6,75.2,83.66,29.8,WMSA 061200Z 32003KT 280V350 9999 FEW026 27/24 Q1009,,29036,C,8/3/1988,10/8/2019
N789LS,,,737-35B,24269,00:00.0,,Omaha,KOMA,San Diego,KSAN,,11:17.0,,28:28.0,61,43,51.48,30.23,KOMA 061752Z 00000KT 10SM SCT120 BKN180 16/06 A3023 RMK AO2 SLP237 T01610061 10161 20094 50011,79,54,42.03,29.97,KSAN 062151Z 28011KT 10SM CLR 26/12 A2997 RMK AO2 SLP147 T02610122,,29065,C,9/28/1988,10/8/2019
N789LS,,,737-35B,24269,00:00.0,,San Diego,KSAN,Las Vegas,KLAS,,53:33.0,,45:06.0,79,54,42.03,29.97,KSAN 062151Z 28011KT 10SM CLR 26/12 A2997 RMK AO2 SLP147 T02610122,82.9,21,10.09,30.09,KLAS 062256Z VRB03KT 10SM FEW200 28/M06 A3009 RMK AO2 SLP172 T02831061,,29065,C,9/28/1988,10/8/2019
G-TGPG,,,737-3Y0(W),24464,00:00.0,No Arrivals Today,Hampshire,EGHP,Hampshire,EGHP,59:00.0,59:00.0,59:00.0,59:00.0,,,,,,,,,,,,29157,C,6/30/1989,10/8/2019
4X-AOO,,,737-4Q8,24707,00:00.0,No Arrivals Today,Ben-Gurion Airport,LLBG,Ben-Gurion Airport,LLBG,59:00.0,59:00.0,59:00.0,59:00.0,,,,,,,,,,,,29287,C,5/2/1991,10/8/2019
C-FPHS,,,737-53A,24970,00:00.0,No Arrivals Today,North Saanich,CYYJ,North Saanich,CYYJ,59:00.0,59:00.0,59:00.0,59:00.0,,,,,,,,,,,,29414,C,12/4/1990,10/8/2019
PR-CID,,,737-33A,25033,00:00.0,Unable to Locate Aircraft,,,,,59:00.0,59:00.0,59:00.0,59:00.0,,,,,,,,,,,,29450,C,3/7/1991,10/8/2019
N732KA,,,737-59D(W),25065,00:00.0,,Los Angeles,KLAX,Nashville,KBNA,,18:54.0,,04:09.0,66,57.9,75.12,29.99,KLAX 060553Z 23003KT 10SM CLR 19/14 A2999 RMK AO2 SLP152 T01890144 10228 20189 51004,72,64,75.92,30.07,KBNA 060953Z 17011KT 10SM FEW019 BKN100 22/18 A3007 RMK AO2 SLP175 T02220178 $,,29465,C,3/13/1991,10/8/2019
YR-CBK,,,737-382,25162,00:00.0,,Sal,GVAC,Dakar,GOBD,,49:58.0,,09:21.0,,,,,,78.8,75.2,88.75,29.85,GOBD 060300Z 25002KT 8000 FEW013 26/24 Q1011 NOSIG,,29514,C,2/17/1992,10/8/2019
YR-CBK,N,,737-382,25162,00:00.0,VR0621,Dakar,GOBD,Sal,GVAC,00:00.0,38:45.0,20:00.0,52:28.0,78.8,75.2,88.75,29.83,GOBD 060530Z 32004KT 8000 FEW013 26/24 Q1010 NOSIG,,,,,,,29514,C,2/17/1992,10/8/2019
YR-CBK,,,737-382,25162,00:00.0,,Sal,GVAC,Praia,GVNP,,42:54.0,,27:14.0,,,,,,,,,,,,29514,C,2/17/1992,10/8/2019
SX-ATF,,,737-406,25423,00:00.0,No Arrivals Today,Norwich,EGSH,Norwich,EGSH,59:00.0,59:00.0,59:00.0,59:00.0,,,,,,,,,,,,29648,C,11/14/1991,10/8/2019
N639CS,,,737-4Y0,26073,00:00.0,No Arrivals Today,Oklahoma City,KOKC,Oklahoma City,KOKC,59:00.0,59:00.0,59:00.0,59:00.0,,,,,,,,,,,,29767,C,9/10/1992,10/8/2019
N640CS,,,737-4Y0,26078,00:00.0,No Arrivals Today,Oklahoma City,KOKC,Oklahoma City,KOKC,59:00.0,59:00.0,59:00.0,59:00.0,,,,,,,,,,,,29772,C,1/19/1993,10/8/2019
N279AD,,,737-4Q8,26279,00:00.0,No Arrivals Today,Oklahoma City,KOKC,Oklahoma City,KOKC,59:00.0,59:00.0,59:00.0,59:00.0,,,,,,,,,,,,29785,C,1/20/1992,10/8/2019
HB-JCR,N,,BD-500-1A11 (A220-300),55044,00:00.0,LX339,Longford,EGLL,Kloten,LSZH,05:00.0,15:50.0,45:00.0,24:02.0,,,,,,48.2,46.4,93.45,30.03,LSZH 060220Z 33005KT 5000 BR BKN008 09/08 Q1017 TEMPO 4000,,239806,C,10/4/2018,10/8/2019
HB-JCR,N,,BD-500-1A11 (A220-300),55044,00:00.0,LX2560,Kloten,LSZH,Cork,EICK,35:00.0,39:43.0,55:00.0,09:30.0,48.2,46.4,93.45,30.03,LSZH 060450Z VRB01KT 7000 FEW006 BKN007 09/08 Q1017 TEMPO 4000 BR,50,46.4,87.37,29.97,EICK 060700Z 28011KT 9999 FEW018 10/08 Q1015 NOSIG,,239806,C,10/4/2018,10/8/2019
HB-JCR,,,BD-500-1A11 (A220-300),55044,00:00.0,,Cork,EICK,Nice,LFMN,,40:23.0,,51:50.0,50,46.4,87.37,29.97,EICK 060730Z 28009KT 9999 FEW020 10/08 Q1015 NOSIG,71.6,62.6,73.27,29.88,LFMN 061300Z 16007KT 9999 FEW025 BKN260 22/17 Q1012 NOSIG,,239806,C,10/4/2018,10/8/2019
HB-JCR,Y,64,BD-500-1A11 (A220-300),55044,00:00.0,LX569,Nice,LFMN,Kloten,LSZH,45:00.0,49:00.0,00:00.0,07:09.0,69.8,59,68.55,29.88,LFMN 061400Z 16005KT 9999 FEW020 BKN230 21/15 Q1012 NOSIG,57.2,51.8,82.12,29.88,LSZH 061520Z VRB02KT 9999 VCSH FEW015 BKN055 14/11 Q1012 TEMPO SHRA,,239806,C,10/4/2018,10/8/2019
HB-JCR,Y,602,BD-500-1A11 (A220-300),55044,00:00.0,LX316,Kloten,LSZH,Longford,EGLL,05:00.0,07:21.0,55:00.0,23:15.0,57.2,51.8,82.12,29.88,LSZH 061520Z VRB02KT 9999 VCSH FEW015 BKN055 14/11 Q1012 TEMPO SHRA,59,48.2,67.33,29.91,EGLL 061820Z AUTO 31007KT 9999 NCD 15/09 Q1013,,239806,C,10/4/2018,10/8/2019
HB-JCR,Y,43,BD-500-1A11 (A220-300),55044,00:00.0,LX327,Longford,EGLL,Kloten,LSZH,40:00.0,23:22.0,20:00.0,18:42.0,59,48.2,67.33,29.91,EGLL 061820Z AUTO 31007KT 9999 NCD 15/09 Q1013,51.8,50,93.55,29.88,LSZH 062120Z 28022KT 4000 SHRA FEW007 SCT016 BKN040 11/10 Q1012 BECMG 5000 NSW,,239806,C,10/4/2018,10/8/2019
HB-JCR,,,BD-500-1A11 (A220-300),55044,00:00.0,,Kloten,LSZH,Leinfelden-Echterdingen,EDDS,,18:46.0,,07:38.0,51.8,50,93.55,29.88,LSZH 062120Z 28022KT 4000 SHRA FEW007 SCT016 BKN040 11/10 Q1012 BECMG 5000 NSW,51.8,48.2,87.47,29.85,EDDS 062220Z 25008KT 9999 -RA FEW008 SCT029 11/09 Q1011,,239806,C,10/4/2018,10/8/2019
N129AC,,,737-4Q8,26280,00:00.0,No Arrivals Today,Tucson,KTUS,Tucson,KTUS,59:00.0,59:00.0,59:00.0,59:00.0,,,,,,,,,,,,29786,C,2/13/1992,10/8/2019
HB-JCS,Y,20,BD-500-1A11 (A220-300),55045,00:00.0,LX2390,Meyrin,LSGG,Faro,LPFR,25:00.0,45:52.0,00:00.0,51:52.0,55.4,50,81.99,30.03,LSGG 060850Z 24004KT 210V270 9999 FEW015 BKN060 13/10 Q1017 NOSIG,69.8,59,68.55,30.12,LPFR 061100Z 18005KT 150V210 CAVOK 21/15 Q1020,,239807,C,11/7/2018,10/8/2019
HB-JCS,Y,18,BD-500-1A11 (A220-300),55045,00:00.0,LX2391,Faro,LPFR,Meyrin,LSGG,40:00.0,58:56.0,15:00.0,49:41.0,69.8,59,68.55,30.12,LPFR 061200Z 22006KT CAVOK 21/15 Q1020,60.8,50,67.54,29.94,LSGG 061450Z 21011KT 9999 FEW030 BKN060 BKN080 16/10 Q1014 NOSIG,,239807,C,11/7/2018,10/8/2019
HB-JCS,N,,BD-500-1A11 (A220-300),55045,00:00.0,LX2104,Meyrin,LSGG,Malaga,LEMG,05:00.0,16:54.0,25:00.0,31:54.0,60.8,48.2,63.15,29.94,LSGG 061520Z 23013KT 9999 VCSH FEW015 BKN050 BKN070 16/09 Q1014 TEMPO 4000 SHRA,69.8,64.4,82.98,30.03,LEMG 061830Z 11003KT 080V140 CAVOK 21/18 Q1017 NOSIG,,239807,C,11/7/2018,10/8/2019
HB-JCS,Y,27,BD-500-1A11 (A220-300),55045,00:00.0,LX2105,Malaga,LEMG,Meyrin,LSGG,05:00.0,32:37.0,25:00.0,01:14.0,69.8,64.4,82.98,30.03,LEMG 061830Z 11003KT 080V140 CAVOK 21/18 Q1017 NOSIG,50,46.4,87.37,30.03,LSGG 062250Z AUTO 17003KT 9999 FEW057 BKN080 10/08 Q1017 RERA TEMPO TSRA,,239807,C,11/7/2018,10/8/2019
G-CKUZ,,,737-46J(F),27213,00:00.0,No Arrivals Today,Ingliston,EGPH,Ingliston,EGPH,59:00.0,59:00.0,59:00.0,59:00.0,,,,,,,,,,,,30048,C,2/8/1994,10/8/2019
HZ-FM1,,,737-528,27425,00:00.0,No Arrivals Today,UNKNOWN,LGST,UNKNOWN,LGST,59:00.0,59:00.0,59:00.0,59:00.0,,,,,,,,,,,,30128,C,5/23/1995,10/8/2019
HB-JCT,N,,BD-500-1A11 (A220-300),55046,00:00.0,LX1120,Meyrin,LSGG,Munchen,EDDM,30:00.0,33:14.0,40:00.0,25:19.0,48.2,46.4,93.45,30.03,LSGG 060420Z VRB01KT 9999 FEW035 SCT060 09/08 Q1017 NOSIG,39.2,39.2,100,30.06,EDDM 060520Z 06001KT 9000 2500SE BCFG FEW040 04/04 Q1018 TEMPO 2500,,239808,C,12/5/2018,10/8/2019
HB-JCT,N,,BD-500-1A11 (A220-300),55046,00:00.0,LX1121,Munchen,EDDM,Meyrin,LSGG,30:00.0,44:51.0,45:00.0,12:56.0,41,41,100,30.06,EDDM 060650Z VRB02KT 9999 FEW001 SCT040 05/05 Q1018 NOSIG,57.2,50,76.82,30.03,LSGG 060920Z VRB03KT 9999 FEW020 BKN060 14/10 Q1017 NOSIG,,239808,C,12/5/2018,10/8/2019
HB-JCT,N,,BD-500-1A11 (A220-300),55046,00:00.0,LX2160,Meyrin,LSGG,Palma,LEPA,00:00.0,14:53.0,40:00.0,30:40.0,57.2,50,76.82,30.03,LSGG 060920Z VRB03KT 9999 FEW020 BKN060 14/10 Q1017 NOSIG,80.6,64.4,57.84,30.06,LEPA 061030Z 21006KT 110V250 9999 FEW025 SCT035 27/18 Q1018 NOSIG,,239808,C,12/5/2018,10/8/2019
HB-JCT,Y,36,BD-500-1A11 (A220-300),55046,00:00.0,LX2161,Palma,LEPA,Meyrin,LSGG,20:00.0,56:04.0,00:00.0,16:53.0,78.8,68,69.52,30.03,LEPA 061200Z 23010KT 9999 FEW025 SCT040 26/20 Q1017 NOSIG,60.8,51.8,72.2,29.97,LSGG 061420Z 21011KT 9999 FEW035 SCT060 BKN080 16/11 Q1015 NOSIG,,239808,C,12/5/2018,10/8/2019
HB-JCT,Y,27,BD-500-1A11 (A220-300),55046,00:00.0,LX348,Meyrin,LSGG,Longford,EGLL,50:00.0,17:44.0,35:00.0,13:21.0,60.8,51.8,72.2,29.97,LSGG 061420Z 21011KT 9999 FEW035 SCT060 BKN080 16/11 Q1015 NOSIG,60.8,46.4,59.01,29.88,EGLL 061620Z AUTO 30010KT 9999 NCD 16/08 Q1012 NOSIG,,239808,C,12/5/2018,10/8/2019
HB-JCT,Y,41,BD-500-1A11 (A220-300),55046,00:00.0,LX349,Longford,EGLL,Meyrin,LSGG,15:00.0,56:53.0,55:00.0,06:58.0,60.8,46.4,59.01,29.88,EGLL 061650Z AUTO 30011KT 9999 NCD 16/08 Q1012 NOSIG,55.4,51.8,87.65,29.94,LSGG 061920Z 22005KT 190V280 9999 -SHRA FEW015 SCT035 BKN060 13/11 Q1014 NOSIG,,239808,C,12/5/2018,10/8/2019
HB-JCT,Y,18,BD-500-1A11 (A220-300),55046,00:00.0,LX358,Meyrin,LSGG,Longford,EGLL,50:00.0,08:42.0,30:00.0,49:37.0,55.4,51.8,87.65,29.94,LSGG 061920Z 22005KT 190V280 9999 -SHRA FEW015 SCT035 BKN060 13/11 Q1014 NOSIG,57.2,48.2,71.83,30,EGLL 062050Z AUTO 29007KT 9999 BKN036 14/09 Q1016 NOSIG,,239808,C,12/5/2018,10/8/2019
N999FJ,,,737-33A,27456,00:00.0,No Arrivals Today,Subang Airport,WMSA,Subang Airport,WMSA,59:00.0,59:00.0,59:00.0,59:00.0,,,,,,,,,,,,30140,B,8/16/1995,10/8/2019
N137CG,,,737-3H4(W),27700,00:00.0,No Arrivals Today,Santa Maria,KSMX,Santa Maria,KSMX,59:00.0,59:00.0,59:00.0,59:00.0,,,,,,,,,,,,30192,C,9/21/1995,10/8/2019
HL8091,N,,BD-500-1A11 (A220-300),55049,00:00.0,KE1102,Busan,RKPK,Seoul,RKSS,40:00.0,51:50.0,40:00.0,33:46.0,66.2,50,55.88,30.24,RKPK 060000Z 01012KT 9999 FEW050 SCT200 19/10 Q1024,66.2,46.4,48.83,30.24,RKSS 060100Z 12012KT CAVOK 19/08 Q1024 NOSIG,,237344,C,1/21/2019,10/8/2019
HL8091,N,,BD-500-1A11 (A220-300),55049,00:00.0,KE1109,Seoul,RKSS,Busan,RKPK,00:00.0,09:04.0,05:00.0,42:35.0,68,46.4,45.88,30.24,RKSS 060200Z 08010KT CAVOK 20/08 Q1024 NOSIG,69.8,48.2,46.16,30.21,RKPK 060300Z 03011KT 9999 FEW050 BKN200 21/09 Q1023,,237344,C,1/21/2019,10/8/2019
HL8091,N,,BD-500-1A11 (A220-300),55049,00:00.0,KE1110,Busan,RKPK,Seoul,RKSS,40:00.0,51:49.0,40:00.0,31:40.0,71.6,48.2,43.42,30.21,RKPK 060400Z 02012KT 9999 FEW040 BKN200 22/09 Q1023,71.6,50,46.43,30.18,RKSS 060500Z 13009KT 090V170 CAVOK 22/10 Q1022 NOSIG,,237344,C,1/21/2019,10/8/2019
HL8091,N,,BD-500-1A11 (A220-300),55049,00:00.0,KE1285,Seoul,RKSS,Cheju,RKPC,55:00.0,02:57.0,05:00.0,42:05.0,71.6,51.8,49.64,30.15,RKSS 060700Z 17006KT 9999 SCT040 BKN200 22/11 Q1021 NOSIG,71.6,62.6,73.27,30.12,RKPC 060800Z 09021KT 9999 SCT025 22/17 Q1020 NOSIG,,237344,C,1/21/2019,10/8/2019
HL8091,Y,36,BD-500-1A11 (A220-300),55049,00:00.0,KE1248,Cheju,RKPC,Seoul,RKSS,05:00.0,41:56.0,15:00.0,22:00.0,69.8,62.6,77.9,30.12,RKPC 061000Z 10015KT 9999 SCT025 21/17 Q1020 NOSIG,66.2,53.6,63.82,30.15,RKSS 061000Z 15007KT 9999 SCT040 BKN200 19/12 Q1021 NOSIG,,237344,C,1/21/2019,10/8/2019
HL8091,N,,BD-500-1A11 (A220-300),55049,00:00.0,KE1263,Seoul,RKSS,Cheju,RKPC,30:00.0,39:47.0,40:00.0,14:55.0,66.2,53.6,63.82,30.18,RKSS 061200Z 16006KT 9999 FEW040 BKN200 19/12 Q1022 NOSIG,69.8,60.8,73.09,30.12,RKPC 061200Z 10015KT 9999 FEW025 21/16 Q1020 NOSIG,,237344,C,1/21/2019,10/8/2019
HL8091,Y,29,BD-500-1A11 (A220-300),55049,00:00.0,KE1202,Cheju,RKPC,Seoul,RKSS,00:00.0,29:14.0,10:00.0,07:09.0,68,60.8,77.75,30.03,RKPC 062200Z 31001KT 9999 BKN060 BKN100 20/16 Q1017 NOSIG,59,57.2,93.74,30.12,RKSS 062300Z 12007KT 6000 -RA SCT010 BKN030 OVC080 15/14 Q1020 NOSIG,,237344,C,1/21/2019,10/8/2019
G-SWRD,,,737-3L9(W),27834,00:00.0,No Arrivals Today,Essex,EGSS,Essex,EGSS,59:00.0,59:00.0,59:00.0,59:00.0,,,,,,,,,,,,30219,C,1/10/1995,10/8/2019
N138CG,,,737-3H4(W),27928,00:00.0,No Arrivals Today,Nambucca Heads,,Nambucca Heads,,59:00.0,59:00.0,59:00.0,59:00.0,,,,,,,,,,,,30299,C,7/6/1995,10/8/2019
9H-LBI,,,737-36N,28669,00:00.0,STORED,Vilobi d'Onyar,LEGE,Vilobi d'Onyar,LEGE,59:00.0,59:00.0,59:00.0,59:00.0,,,,,,,,,,,,30654,C,5/29/1997,10/8/2019
LY-KLJ,,,737-524,28923,00:00.0,No Arrivals Today,Vilnius,EYVI,Vilnius,EYVI,59:00.0,59:00.0,59:00.0,59:00.0,,,,,,,,,,,,30803,C,7/6/1998,10/8/2019
PK-TVZ,,,737-5L9,28996,00:00.0,No Arrivals Today,Singapore,WSSL,Singapore,WSSL,59:00.0,59:00.0,59:00.0,59:00.0,,,,,,,,,,,,30857,C,1/20/1998,10/8/2019
HL8315,Y,24,BD-500-1A11 (A220-300),55037,00:00.0,KE697,Busan,RKPK,Taoyuan City,RCTP,30:00.0,54:41.0,00:00.0,49:56.0,66.2,50,55.88,30.24,RKPK 060000Z 01012KT 9999 FEW050 SCT200 19/10 Q1024,84.2,71.6,65.95,30,RCTP 060142Z 07017KT 9999 FEW020 BKN060 29/22 Q1016 WS R05R NOSIG RMK A3003,,235933,C,11/30/2018,10/8/2019
HL8315,Y,23,BD-500-1A11 (A220-300),55037,00:00.0,KE698,Taoyuan City,RCTP,Busan,RKPK,35:00.0,58:51.0,00:00.0,41:00.0,86,73.4,66.15,29.94,RCTP 060400Z 08018KT 9999 FEW020 BKN035 30/23 Q1014 WS R05R NOSIG RMK A2997,73.4,50,43.69,30.18,RKPK 060600Z 02011KT 9999 SCT040 BKN200 23/10 Q1022,,235933,C,11/30/2018,10/8/2019
N737MT,,,737-5L9,29234,00:00.0,No Arrivals Today,Fort Worth,KFTW,Fort Worth,KFTW,59:00.0,59:00.0,59:00.0,59:00.0,,,,,,,,,,,,30961,B,7/29/1998,10/8/2019
N101DU,Y,34,BD-500-1A10 (A220-100),50020,00:00.0,DL1241,Salt Lake City,KSLC,San Francisco,KSFO,00:00.0,34:55.0,59:00.0,47:45.0,,,,,,73,37.9,27.89,30.02,KSFO 060056Z 28014KT 10SM CLR 23/03 A3002 RMK AO2 SLP165 T02280033,,230813,C,10/6/2018,10/8/2019
N101DU,Y,63,BD-500-1A10 (A220-100),50020,00:00.0,DL1241,San Francisco,KSFO,Salt Lake City,KSLC,45:00.0,48:58.0,30:00.0,28:01.0,73,37.9,27.89,30.02,KSFO 060056Z 28014KT 10SM CLR 23/03 A3002 RMK AO2 SLP165 T02280033,44.1,27,50.73,30.45,KSLC 061454Z 12006KT 10SM CLR 07/M03 A3045 RMK AO2 SLP303 T00671028 53017,,230813,C,10/6/2018,10/8/2019
N101DU,Y,41,BD-500-1A10 (A220-100),50020,00:00.0,DL2270,Salt Lake City,KSLC,Oklahoma City,KOKC,54:00.0,35:59.0,30:00.0,56:05.0,60.1,30,31.8,30.41,KSLC 062054Z 01006KT 10SM CLR 16/M01 A3041 RMK AO2 SLP283 T01561011 58013,64,44.1,48.31,30.11,KOKC 062252Z 03025G32KT 10SM BKN044 18/07 A3011 RMK AO2 PK WND 03032/2248 SLP190 T01780067,,230813,C,10/6/2018,10/8/2019
EP-AGA,,,737-286,21317,00:00.0,Unable to Locate Aircraft,,,,,59:00.0,59:00.0,59:00.0,59:00.0,,,,,,,,,,,,27823,C,2/8/1977,10/8/2019
N102DU,,,BD-500-1A10 (A220-100),50021,00:00.0,No Arrivals Today,Salt Lake City,KSLC,Salt Lake City,KSLC,59:00.0,59:00.0,59:00.0,59:00.0,,,,,,,,,,,,230814,C,12/7/2018,10/8/2019
C-FFAL,,,737-2R8C,21711,00:00.0,No Arrivals Today,Mississauga,CYYZ,Mississauga,CYYZ,59:00.0,59:00.0,59:00.0,59:00.0,,,,,,,,,,,,27891,C,4/19/1979,10/8/2019
N103DU,N,,BD-500-1A10 (A220-100),50022,00:00.0,DL1354,Romulus,KDTW,Newark,KEWR,30:00.0,43:56.0,14:00.0,16:27.0,55.9,48.9,77.28,30.03,KDTW 060053Z 01003KT 10SM BKN140 OVC220 13/09 A3003 RMK AO2 SLP171 T01330094,57.9,46,64.47,30.37,KEWR 060351Z 14004KT 10SM FEW024 OVC045 14/08 A3037 RMK AO2 SLP283 T01440078,,237343,C,11/22/2018,10/8/2019
N103DU,N,,BD-500-1A10 (A220-100),50022,00:00.0,DL491,Newark,KEWR,Romulus,KDTW,25:00.0,35:42.0,28:00.0,55:57.0,64.9,55,70.28,30.32,KEWR 061351Z 18009KT 10SM FEW030 OVC038 18/13 A3032 RMK AO2 SLP266 T01830128 $,61,55.9,83.29,30.02,KDTW 061453Z 23008KT 8SM FEW011 BKN055 BKN080 16/13 A3002 RMK AO2 RAE08 SLP165 P0000 60002 T01610133 51012,,237343,C,11/22/2018,10/8/2019
N103DU,Y,24,BD-500-1A10 (A220-100),50022,00:00.0,DL2169,Romulus,KDTW,Newark,KEWR,04:00.0,28:32.0,50:00.0,09:47.0,70,50,49.03,30.04,KDTW 061853Z 26013G19KT 10SM FEW040 SCT150 BKN250 21/10 A3004 RMK AO2 SLP172 T02110100,71.1,61,70.42,30.24,KEWR 061951Z 18010KT 10SM SCT034 BKN048 BKN065 OVC150 22/16 A3024 RMK AO2 SLP241 T02170161 $,,237343,C,11/22/2018,10/8/2019
N103DU,N,,BD-500-1A10 (A220-100),50022,00:00.0,DL2169,Newark,KEWR,Romulus,KDTW,55:00.0,51:56.0,47:00.0,21:54.0,71.1,61,70.42,30.24,KEWR 062051Z 19010KT 10SM FEW029 OVC045 22/16 A3024 RMK AO2 SLP240 T02170161 56010 $,64.9,45,48.44,30.07,KDTW 062153Z 28008KT 10SM FEW050 BKN170 OVC250 18/07 A3007 RMK AO2 SLP183 T01830072,,237343,C,11/22/2018,10/8/2019
C-GXNR,,,737-2S2C,21929,00:00.0,No Arrivals Today,Mississauga,CYYZ,Mississauga,CYYZ,59:00.0,59:00.0,59:00.0,59:00.0,,,,,,,,,,,,27966,C,9/19/1979,10/8/2019
N104DU,N,,BD-500-1A10 (A220-100),50023,00:00.0,DL2747,Salt Lake City,KSLC,Costa Mesa,KSNA,10:00.0,17:47.0,59:00.0,46:54.0,57.9,27,30.43,30.21,KSLC 052354Z 33013KT 10SM FEW180 FEW250 14/M03 A3021 RMK AO2 SLP216 T01441028 10161 20117 56008,73.9,52,46.27,29.95,KSNA 060053Z 21007KT 10SM FEW300 23/11 A2995 RMK AO2 SLP141 T02330111,,236095,C,12/20/2018,10/8/2019
N104DU,Y,22,BD-500-1A10 (A220-100),50023,00:00.0,DL1477,Costa Mesa,KSNA,Salt Lake City,KSLC,45:00.0,07:36.0,44:00.0,36:55.0,61,48.9,64.37,30.01,KSNA 061453Z 00000KT 10SM CLR 16/09 A3001 RMK AO2 SLP163 T01610094 51011,55,30,38.21,30.46,KSLC 061754Z 00000KT 10SM CLR 13/M01 A3046 RMK AO2 SLP300 T01281011 10128 20033 50001,,236095,C,12/20/2018,10/8/2019
N104DU,N,,BD-500-1A10 (A220-100),50023,00:00.0,DL3057,Salt Lake City,KSLC,Costa Mesa,KSNA,30:00.0,37:54.0,26:00.0,05:15.0,55,30,38.21,30.46,KSLC 061754Z 00000KT 10SM CLR 13/M01 A3046 RMK AO2 SLP300 T01281011 10128 20033 50001,82.9,46.9,28.43,30,KSNA 061853Z 00000KT 10SM CLR 28/08 A3000 RMK AO2 SLP159 T02830083,,236095,C,12/20/2018,10/8/2019
N104DU,Y,40,BD-500-1A10 (A220-100),50023,00:00.0,DL3057,Costa Mesa,KSNA,Salt Lake City,KSLC,10:00.0,50:58.0,00:00.0,24:42.0,84.9,52,32.24,29.96,KSNA 062053Z 23006KT 10SM CLR 29/11 A2996 RMK AO2 SLP144 T02940111 58020,60.1,28,29.31,30.38,KSLC 062254Z 33006KT 10SM CLR 16/M02 A3038 RMK AO2 SLP270 T01561022,,236095,C,12/20/2018,10/8/2019
VP-CDA,,,737-2W8,22628,00:00.0,No Arrivals Today,Bridgeville,,Bridgeville,,59:00.0,59:00.0,59:00.0,59:00.0,,,,,,,,,,,,28156,B,11/9/1981,10/8/2019
C-GTVO,,,737-219C,22994,00:00.0,No Arrivals Today,Dorval,CYUL,Dorval,CYUL,59:00.0,59:00.0,59:00.0,59:00.0,,,,,,,,,,,,28323,C,11/3/1982,10/8/2019
N105DU,Y,22,BD-500-1A10 (A220-100),50024,00:00.0,DL2162,SeaTac,KSEA,Santa Clara,KSJC,10:00.0,32:56.0,17:00.0,21:45.0,,,,,,75.9,39.9,27.37,30.01,KSJC 060053Z 33012KT 10SM FEW080 24/04 A3001 RMK AO2 SLP160 T02440044 $,,239786,C,2/3/2019,10/8/2019
N105DU,Y,25,BD-500-1A10 (A220-100),50024,00:00.0,DL2162,Santa Clara,KSJC,SeaTac,KSEA,56:00.0,21:50.0,15:00.0,13:08.0,75.9,39.9,27.37,30.01,KSJC 060053Z 33012KT 10SM FEW080 24/04 A3001 RMK AO2 SLP160 T02440044 $,57,44.1,61.95,30.39,KSEA 060253Z 36007KT 10SM FEW030 14/07 A3039 RMK AO2 SLP296 T01390067 53002,,239786,C,2/3/2019,10/8/2019
N105DU,N,,BD-500-1A10 (A220-100),50024,00:00.0,DL1873,SeaTac,KSEA,Santa Clara,KSJC,30:00.0,31:08.0,44:00.0,25:55.0,46,43,89.2,30.36,KSEA 061439Z 00000KT 1SM R16L/4500VP6000FT BR SCT001 SCT250 08/06 A3036 RMK AO2 TWR VIS 7 VIS SE 3/4 T00780061,73,39.9,30.16,30.05,KSJC 061753Z VRB03KT 10SM FEW075 SCT150 23/04 A3005 RMK AO2 SLP174 T02280044 10233 20106 50003 $,,239786,C,2/3/2019,10/8/2019
N105DU,N,,BD-500-1A10 (A220-100),50024,00:00.0,DL1642,Santa Clara,KSJC,Salt Lake City,KSLC,24:00.0,26:01.0,13:00.0,28:00.0,73,39.9,30.16,30.05,KSJC 061753Z VRB03KT 10SM FEW075 SCT150 23/04 A3005 RMK AO2 SLP174 T02280044 10233 20106 50003 $,61,28,28.38,30.39,KSLC 062154Z 32009KT 10SM CLR 16/M02 A3039 RMK AO2 SLP275 T01611022,,239786,C,2/3/2019,10/8/2019
N370BC,,,737-205,23468,00:00.0,No Arrivals Today,Addison,KADS,Addison,KADS,59:00.0,59:00.0,59:00.0,59:00.0,,,,,,,,,,,,28607,B,7/16/1986,10/8/2019
N106DU,Y,17,BD-500-1A10 (A220-100),50025,00:00.0,DL1097,Boston,KBOS,Queens County,KLGA,00:00.0,17:57.0,23:00.0,11:26.0,66,48,52.22,30.35,KBOS 061554Z 19016G20KT 10SM FEW028 BKN045 19/09 A3035 RMK AO2 SLP277 T01890089,69.1,57.9,67.5,30.29,KLGA 061651Z 19012G23KT 10SM FEW025 BKN050 BKN060 OVC140 21/14 A3029 RMK AO2 SLP258 T02060144,,239787,C,2/9/2019,10/8/2019
N106DU,Y,35,BD-500-1A10 (A220-100),50025,00:00.0,DL2865,Queens County,KLGA,Houston,KIAH,05:00.0,40:20.0,02:00.0,47:22.0,70,61,73.11,30.25,KLGA 061951Z 18013KT 10SM OVC050 21/16 A3025 RMK AO2 SLP242 T02110161,88,69.1,53.64,29.91,KIAH 062253Z 13008KT 10SM FEW050 FEW250 31/21 A2991 RMK AO2 SLP126 T03110206,,239787,C,2/9/2019,10/8/2019
N737LE,,,737-75V(W) (BBJ),28579,00:00.0,No Arrivals Today,Queens County,KLGA,Queens County,KLGA,59:00.0,59:00.0,59:00.0,59:00.0,,,,,,,,,,,,30586,C,6/7/1999,10/8/2019
N107DU,N,,BD-500-1A10 (A220-100),50026,00:00.0,DL1504,Queens County,KLGA,Grapevine,KDFW,45:00.0,46:12.0,40:00.0,13:28.0,,,,,,89.1,57.9,34.97,29.87,KDFW 052353Z 17007KT 10SM FEW080 32/14 A2987 RMK AO2 SLP105 T03170144 10344 20317 56010,,239788,C,2/12/2019,10/8/2019
N107DU,N,,BD-500-1A10 (A220-100),50026,00:00.0,DL621,Grapevine,KDFW,Romulus,KDTW,35:00.0,42:00.0,14:00.0,08:53.0,75,66,73.59,29.96,KDFW 061253Z 18007KT 10SM FEW060 FEW300 24/19 A2996 RMK AO2 SLP135 T02390189,61,55.9,83.29,30.02,KDTW 061453Z 23008KT 8SM FEW011 BKN055 BKN080 16/13 A3002 RMK AO2 RAE08 SLP165 P0000 60002 T01610133 51012,,239788,C,2/12/2019,10/8/2019
N107DU,Y,24,BD-500-1A10 (A220-100),50026,00:00.0,DL2150,Romulus,KDTW,Grapevine,KDFW,10:00.0,34:51.0,01:00.0,23:19.0,66.9,54,63.21,30.03,KDTW 061653Z 25013KT 10SM BKN023 BKN110 BKN250 19/12 A3003 RMK AO2 SLP169 T01940122,93.9,61,33.62,29.91,KDFW 061953Z 21012KT 10SM FEW095 SCT110 34/16 A2991 RMK AO2 SLP116 CB DSNT N MOV SE T03440161,,239788,C,2/12/2019,10/8/2019
N107DU,Y,29,BD-500-1A10 (A220-100),50026,00:00.0,DL648,Grapevine,KDFW,Salt Lake City,KSLC,46:00.0,15:55.0,30:00.0,58:54.0,93.9,61,33.62,29.91,KDFW 061953Z 21012KT 10SM FEW095 SCT110 34/16 A2991 RMK AO2 SLP116 CB DSNT N MOV SE T03440161,60.1,28,29.31,30.38,KSLC 062254Z 33006KT 10SM CLR 16/M02 A3038 RMK AO2 SLP270 T01561022,,239788,C,2/12/2019,10/8/2019
N108DQ,N,,BD-500-1A10 (A220-100),50027,00:00.0,DL1766,Salt Lake City,KSLC,Grapevine,KDFW,30:00.0,36:41.0,02:00.0,34:40.0,57.9,27,30.43,30.21,KSLC 052354Z 33013KT 10SM FEW180 FEW250 14/M03 A3021 RMK AO2 SLP216 T01441028 10161 20117 56008,82.9,63,51.1,29.9,KDFW 060153Z 13007KT 10SM CLR 28/17 A2990 RMK AO2 SLP117 T02830172,,239789,C,4/12/2019,10/8/2019
N108DQ,N,,BD-500-1A10 (A220-100),50027,00:00.0,DL505,Grapevine,KDFW,Queens County,KLGA,05:00.0,15:22.0,30:00.0,46:41.0,91,63,39.49,29.98,KDFW 061653Z 21013KT 10SM FEW095 SCT120 SCT220 33/17 A2998 RMK AO2 SLP141 T03280172,70,62.1,76.01,30.24,KLGA 062051Z 18012KT 10SM OVC050 21/17 A3024 RMK AO2 SLP241 T02110167 56009,,239789,C,4/12/2019,10/8/2019
N43PR,,,737-75V(W) (BBJ),28581,00:00.0,No Arrivals Today,Ardmore,KADM,Ardmore,KADM,59:00.0,59:00.0,59:00.0,59:00.0,,,,,,,,,,,,30588,B,9/15/1998,10/8/2019
N109DU,N,,BD-500-1A10 (A220-100),50028,00:00.0,DL2002,SeaTac,KSEA,San Francisco,KSFO,20:00.0,30:18.0,31:00.0,40:00.0,,,,,,73,37.9,27.89,30.02,KSFO 060056Z 28014KT 10SM CLR 23/03 A3002 RMK AO2 SLP165 T02280033,,239790,C,2/23/2019,10/8/2019
N109DU,N,,BD-500-1A10 (A220-100),50028,00:00.0,DL1588,San Francisco,KSFO,SeaTac,KSEA,35:00.0,40:07.0,03:00.0,14:57.0,73,37.9,27.89,30.02,KSFO 060056Z 28014KT 10SM CLR 23/03 A3002 RMK AO2 SLP165 T02280033,57,44.1,61.95,30.39,KSEA 060253Z 36007KT 10SM FEW030 14/07 A3039 RMK AO2 SLP296 T01390067 53002,,239790,C,2/23/2019,10/8/2019
N109DU,N,,BD-500-1A10 (A220-100),50028,00:00.0,DL2621,SeaTac,KSEA,San Francisco,KSFO,50:00.0,44:55.0,59:00.0,04:26.0,55.9,45,66.72,30.39,KSEA 060353Z 03008KT 10SM FEW030 13/07 A3039 RMK AO2 SLP298 T01330072,64,39,39.67,30.03,KSFO 060556Z 25003KT 10SM CLR 18/04 A3003 RMK AO2 SLP167 T01780039 10250 20167 50002,,239790,C,2/23/2019,10/8/2019
N109DU,N,,BD-500-1A10 (A220-100),50028,00:00.0,DL2893,San Francisco,KSFO,SeaTac,KSEA,10:00.0,19:28.0,27:00.0,32:24.0,59,48.9,69.12,30.04,KSFO 061456Z 00000KT 10SM FEW180 15/09 A3004 RMK AO2 SLP170 T01500094 51010,55.9,46,69.3,30.34,KSEA 061753Z VRB05KT 10SM FEW005 BKN250 13/08 A3034 RMK AO2 SLP281 T01330078 10133 20067 58003,,239790,C,2/23/2019,10/8/2019
N109DU,N,,BD-500-1A10 (A220-100),50028,00:00.0,DL1470,SeaTac,KSEA,San Francisco,KSFO,11:00.0,20:53.0,28:00.0,12:47.0,55.9,46,69.3,30.34,KSEA 061753Z VRB05KT 10SM FEW005 BKN250 13/08 A3034 RMK AO2 SLP281 T01330078 10133 20067 58003,79,37.9,22.84,30,KSFO 062056Z 00000KT 10SM FEW170 SCT200 26/03 A3000 RMK AO2 SLP160 T02610033 58017,,239790,C,2/23/2019,10/8/2019
N733KA,,,737-86N(W)(ETOPS),28643,00:00.0,No Arrivals Today,Oakland,KOAK,Oakland,KOAK,59:00.0,59:00.0,59:00.0,59:00.0,,,,,,,,,,,,30633,C,3/30/2001,10/8/2019
5U-GRN,,,737-75U(W) (BBJ),28976,00:00.0,No Arrivals Today,Paray-Vieille-Poste,LFPO,Paray-Vieille-Poste,LFPO,59:00.0,59:00.0,59:00.0,59:00.0,,,,,,,,,,,,30841,C,11/3/1998,10/8/2019
N110DU,N,,BD-500-1A10 (A220-100),50029,00:00.0,DL1457,Grapevine,KDFW,New York,KJFK,00:00.0,12:27.0,31:00.0,26:38.0,82.9,64,52.93,29.98,KDFW 061453Z 19010KT 10SM FEW060 SCT250 28/18 A2998 RMK AO2 SLP141 T02830178 51009,69.1,64.9,86.48,30.25,KJFK 062251Z 19015KT 10SM FEW018 OVC049 21/18 A3025 RMK AO2 SLP245 T02060183,,239791,C,3/16/2019,10/8/2019
N111NG,Y,21,BD-500-1A10 (A220-100),50030,00:00.0,DL320,Saint Paul,KMSP,Grapevine,KDFW,45:00.0,06:40.0,13:00.0,10:18.0,54,46.9,76.83,29.74,KMSP 060053Z 27017G30KT 10SM SCT032 OVC060 12/08 A2974 RMK AO2 PK WND 27034/0006 DZE21 SLP075 P0000 T01220083,82.9,64,52.93,29.9,KDFW 060253Z 15007KT 10SM CLR 28/18 A2990 RMK AO2 SLP117 T02830178 51012,,239792,C,5/25/2019,10/8/2019
N111NG,N,,BD-500-1A10 (A220-100),50030,00:00.0,DL385,Grapevine,KDFW,Salt Lake City,KSLC,37:00.0,30:32.0,28:00.0,32:30.0,93,63,37.1,29.95,KDFW 061753Z 21010KT 10SM FEW095 SCT120 34/17 A2995 RMK AO2 SLP133 T03390172 10339 20228 58007,61,28,28.38,30.39,KSLC 062154Z 32009KT 10SM CLR 16/M02 A3039 RMK AO2 SLP275 T01611022,,239792,C,5/25/2019,10/8/2019
N111NG,Y,20,BD-500-1A10 (A220-100),50030,00:00.0,DL1056,Salt Lake City,KSLC,Costa Mesa,KSNA,12:00.0,32:57.0,06:00.0,08:46.0,61,28,28.38,30.39,KSLC 062154Z 32009KT 10SM CLR 16/M02 A3039 RMK AO2 SLP275 T01611022,82,52,35.41,29.93,KSNA 062253Z 24007KT 10SM CLR 28/11 A2993 RMK AO2 SLP135 T02780111,,239792,C,5/25/2019,10/8/2019
N480CH,,,737-72T(W) (BBJ),29024,00:00.0,No Arrivals Today,Opa-locka,KOPF,Opa-locka,KOPF,59:00.0,59:00.0,59:00.0,59:00.0,,,,,,,,,,,,30861,B,9/21/1998,10/8/2019
N112DU,N,,BD-500-1A10 (A220-100),50031,00:00.0,DL719,Queens County,KLGA,Houston,KIAH,25:00.0,32:17.0,28:00.0,58:22.0,69.1,57.9,67.5,30.29,KLGA 061651Z 19012G23KT 10SM FEW025 BKN050 BKN060 OVC140 21/14 A3029 RMK AO2 SLP258 T02060144,91,70,50.33,29.94,KIAH 061953Z 14006KT 10SM SCT045 SCT050 33/21 A2994 RMK AO2 SLP138 T03280211,,239793,C,4/5/2019,10/8/2019
N113DQ,N,,BD-500-1A10 (A220-100),50032,00:00.0,DL2249,Houston,KIAH,Salt Lake City,KSLC,40:00.0,43:54.0,50:00.0,10:40.0,73,71.1,93.77,29.97,KIAH 061153Z 36003KT 6SM BR CLR 23/22 A2997 RMK AO2 SLP147 T02280217 10261 20228 53012,48.9,28,44.1,30.47,KSLC 061554Z 00000KT 10SM CLR 09/M02 A3047 RMK AO2 SLP305 T00941022,,239794,C,5/5/2019,10/8/2019
N113DQ,Y,20,BD-500-1A10 (A220-100),50032,00:00.0,DL2036,Salt Lake City,KSLC,Grapevine,KDFW,50:00.0,10:45.0,23:00.0,13:40.0,48.9,28,44.1,30.47,KSLC 061554Z 00000KT 10SM CLR 09/M02 A3047 RMK AO2 SLP305 T00941022,93,63,37.1,29.95,KDFW 061753Z 21010KT 10SM FEW095 SCT120 34/17 A2995 RMK AO2 SLP133 T03390172 10339 20228 58007,,239794,C,5/5/2019,10/8/2019
N113DQ,N,,BD-500-1A10 (A220-100),50032,00:00.0,DL1799,Grapevine,KDFW,Queens County,KLGA,05:00.0,15:30.0,32:00.0,44:12.0,93.9,62.1,34.95,29.93,KDFW 061853Z 21010KT 10SM FEW095 SCT120 34/17 A2993 RMK AO2 SLP124 T03440167,70,62.1,76.01,30.23,KLGA 062251Z 18009KT 10SM -RA BKN046 OVC055 21/17 A3023 RMK AO2 RAB31 SLP238 P0000 T02110167,,239794,C,5/5/2019,10/8/2019
N834BZ,,,737-73Q(W) (BBJ),29102,00:00.0,,West Palm Beach,KPBI,Kansas City,KMCI,,26:33.0,,09:36.0,82.9,70,65.13,29.98,KPBI 061253Z 08012KT 10SM SCT029 BKN250 28/21 A2998 RMK AO2 SLP150 T02830211 PNO $,55,52,89.59,30.19,KMCI 061453Z 35003KT 10SM BKN120 13/11 A3019 RMK AO2 SLP222 T01280111 51022,,30921,B,7/26/1998,10/8/2019
N114DU,N,,BD-500-1A10 (A220-100),50033,00:00.0,DL1325,Grapevine,KDFW,Salt Lake City,KSLC,15:00.0,18:04.0,58:00.0,45:52.0,,,,,,48.9,30.9,49.63,30.23,KSLC 060154Z 35007KT 10SM FEW160 09/M01 A3023 RMK AO2 SLP230 T00941006,,239795,C,5/21/2019,10/8/2019
N114DU,,,BD-500-1A10 (A220-100),50033,00:00.0,,Salt Lake City,KSLC,Santa Clara,KSJC,,01:51.0,,42:02.0,44.1,27,50.73,30.45,KSLC 061454Z 12006KT 10SM CLR 07/M03 A3045 RMK AO2 SLP303 T00671028 53017,73,39.9,30.16,30.05,KSJC 061753Z VRB03KT 10SM FEW075 SCT150 23/04 A3005 RMK AO2 SLP174 T02280044 10233 20106 50003 $,,239795,C,5/21/2019,10/8/2019
N114DU,Y,37,BD-500-1A10 (A220-100),50033,00:00.0,DL1378,Santa Clara,KSJC,SeaTac,KSEA,05:00.0,42:56.0,22:00.0,38:07.0,73,39.9,30.16,30.05,KSJC 061753Z VRB03KT 10SM FEW075 SCT150 23/04 A3005 RMK AO2 SLP174 T02280044 10233 20106 50003 $,61,42.1,49.73,30.31,KSEA 061953Z 02007KT 10SM FEW120 BKN250 16/06 A3031 RMK AO2 SLP270 T01610056,,239795,C,5/21/2019,10/8/2019
N114DU,Y,39,BD-500-1A10 (A220-100),50033,00:00.0,DL2252,SeaTac,KSEA,Santa Clara,KSJC,06:00.0,45:42.0,18:00.0,40:57.0,63,42.1,46.34,30.28,KSEA 062053Z 02008KT 10SM FEW100 BKN250 17/06 A3028 RMK AO2 SLP259 T01720056 58021,84.9,41,21.28,29.96,KSJC 062253Z VRB03KT 10SM FEW080 SCT120 29/05 A2996 RMK AO2 SLP144 T02940050 $,,239795,C,5/21/2019,10/8/2019
P4-ACC,,,737-74Q(W) (BBJ),29135,00:00.0,,Essex,EGSS,Riyadh,OERK,,03:55.0,,10:07.0,,,,,,77,51.8,41.42,29.91,OERK 060300Z 00000KT 8000 NSC 25/11 Q1013 NOSIG,,30938,B,1/20/1999,10/8/2019
N115DU,N,,BD-500-1A10 (A220-100),50034,00:00.0,DL1862,Romulus,KDTW,Grapevine,KDFW,10:00.0,24:46.0,55:00.0,51:26.0,55.9,48.9,77.28,30.03,KDTW 060053Z 01003KT 10SM BKN140 OVC220 13/09 A3003 RMK AO2 SLP171 T01330094,82.9,64,52.93,29.9,KDFW 060253Z 15007KT 10SM CLR 28/18 A2990 RMK AO2 SLP117 T02830178 51012,,239796,C,6/8/2019,10/8/2019
N115DU,N,,BD-500-1A10 (A220-100),50034,00:00.0,DL905,Grapevine,KDFW,Salt Lake City,KSLC,30:00.0,25:38.0,16:00.0,32:34.0,78.1,66,66.39,29.97,KDFW 061353Z 19010KT 10SM FEW060 FEW120 26/19 A2997 RMK AO2 SLP139 T02560189,55,30,38.21,30.46,KSLC 061754Z 00000KT 10SM CLR 13/M01 A3046 RMK AO2 SLP300 T01281011 10128 20033 50001,,239796,C,6/8/2019,10/8/2019
N115DU,N,,BD-500-1A10 (A220-100),50034,00:00.0,DL2236,Salt Lake City,KSLC,Grapevine,KDFW,20:00.0,32:57.0,51:00.0,46:18.0,55,30,38.21,30.46,KSLC 061754Z 00000KT 10SM CLR 13/M01 A3046 RMK AO2 SLP300 T01281011 10128 20033 50001,93.9,61,33.62,29.91,KDFW 061953Z 21012KT 10SM FEW095 SCT110 34/16 A2991 RMK AO2 SLP116 CB DSNT N MOV SE T03440161,,239796,C,6/8/2019,10/8/2019
N115DU,N,,BD-500-1A10 (A220-100),50034,00:00.0,DL1563,Grapevine,KDFW,Romulus,KDTW,30:00.0,34:48.0,04:00.0,52:17.0,96.1,61,31.41,29.88,KDFW 062053Z 17006KT 10SM FEW080 FEW120 SCT250 36/16 A2988 RMK AO2 SLP107 CB DSNT SW-NW-NE MOV SE T03560161 58025,63,46,53.78,30.09,KDTW 062253Z 27007KT 10SM FEW110 BKN170 OVC240 17/08 A3009 RMK AO2 SLP189 VIRGA ALQDS T01720078,,239796,C,6/8/2019,10/8/2019
TT-ABD,,,737-74Q(W) (BBJ),29136,00:00.0,No Arrivals Today,Zinder,DRZR,Zinder,DRZR,59:00.0,59:00.0,59:00.0,59:00.0,,,,,,,,,,,,30939,M,2/16/1999,10/8/2019
N116DU,N,,BD-500-1A10 (A220-100),50035,00:00.0,DL991,Houston,KIAH,Saint Paul,KMSP,00:00.0,08:30.0,41:00.0,00:10.0,,,,,,54,48,80.07,29.72,KMSP 052353Z 26017G37KT 7SM -DZ FEW025 BKN032 OVC044 12/09 A2972 RMK AO2 PK WND 26039/2341 DZB47 SLP067 P0000 60000 T01220089 10144 20106 53015,,239797,C,6/8/2019,10/8/2019
VP-BEL,,,737-74T(W) (BBJ),29139,00:00.0,No Arrivals Today,Tan Binh,VVTS,Tan Binh,VVTS,59:00.0,59:00.0,59:00.0,59:00.0,,,,,,,,,,,,30940,B,12/17/1998,10/8/2019
N117DU,,,BD-500-1A10 (A220-100),50036,00:00.0,No Arrivals Today,Queens County,KLGA,Queens County,KLGA,59:00.0,59:00.0,59:00.0,59:00.0,,,,,,,,,,,,239798,C,6/16/2019,10/8/2019
N118DU,N,,BD-500-1A10 (A220-100),50037,00:00.0,DL465,Queens County,KLGA,Grapevine,KDFW,29:00.0,36:28.0,30:00.0,08:01.0,69.1,57.9,67.5,30.29,KLGA 061651Z 19012G23KT 10SM FEW025 BKN050 BKN060 OVC140 21/14 A3029 RMK AO2 SLP258 T02060144,93.9,61,33.62,29.91,KDFW 061953Z 21012KT 10SM FEW095 SCT110 34/16 A2991 RMK AO2 SLP116 CB DSNT N MOV SE T03440161,,239799,C,6/24/2019,10/8/2019
TS-IOO,,,737-7H3(W) (BBJ),29149,00:00.0,No Arrivals Today,Enfidha,DTNH,Enfidha,DTNH,59:00.0,59:00.0,59:00.0,59:00.0,,,,,,,,,,,,30944,C,7/21/1999,10/8/2019
N119DU,Y,34,BD-500-1A10 (A220-100),50038,00:00.0,DL2226,Romulus,KDTW,Grapevine,KDFW,35:00.0,09:30.0,28:00.0,04:51.0,60.1,54,80.25,30,KDTW 061253Z 23009KT 10SM BKN070 OVC110 16/12 A3000 RMK AO2 SLP161 T01560122,88,63,43.4,29.99,KDFW 061553Z 21013KT 10SM FEW095 BKN120 31/17 A2999 RMK AO2 SLP144 T03110172,,239800,C,7/1/2019,10/8/2019
N119DU,N,,BD-500-1A10 (A220-100),50038,00:00.0,DL2800,Grapevine,KDFW,Romulus,KDTW,17:00.0,20:07.0,56:00.0,35:11.0,93,63,37.1,29.95,KDFW 061753Z 21010KT 10SM FEW095 SCT120 34/17 A2995 RMK AO2 SLP133 T03390172 10339 20228 58007,68,45,43.51,30.05,KDTW 062053Z 28010KT 10SM FEW040 SCT170 BKN250 20/07 A3005 RMK AO2 SLP175 VIRGA E T02000072 53000,,239800,C,7/1/2019,10/8/2019
VQ-BTA,,,737-7P3(W) (BBJ),29188,00:00.0,No Arrivals Today,Arnavutkoy,LTBW,Arnavutkoy,LTBW,59:00.0,59:00.0,59:00.0,59:00.0,,,,,,,,,,,,30945,C,2/4/1999,10/8/2019
N120DU,N,,BD-500-1A10 (A220-100),50039,00:00.0,DL1455,SeaTac,KSEA,San Francisco,KSFO,07:00.0,07:59.0,16:00.0,18:15.0,61,46,57.72,30.38,KSEA 052353Z 30007KT 10SM FEW030 SCT065 16/08 A3038 RMK AO2 SLP295 60000 T01610078 10172 20122 53002,66.9,37.9,34.35,30.02,KSFO 060356Z 28007KT 10SM CLR 19/03 A3002 RMK AO2 SLP166 T01940033,,239801,C,7/11/2019,10/8/2019
N120DU,N,,BD-500-1A10 (A220-100),50039,00:00.0,DL2703,San Francisco,KSFO,SeaTac,KSEA,00:00.0,09:59.0,13:00.0,57:45.0,57,42.1,57.38,30.01,KSFO 061256Z 23003KT 10SM CLR 14/06 A3001 RMK AO2 SLP163 T01390056,45,44.1,96.63,30.36,KSEA 061453Z 00000KT 6SM BR FEW000 SCT002 SCT250 07/07 A3036 RMK AO2 SLP288 FG BANK N AND S T00720067 55008,,239801,C,7/11/2019,10/8/2019
N120DU,Y,15,BD-500-1A10 (A220-100),50039,00:00.0,DL838,SeaTac,KSEA,Santa Clara,KSJC,30:00.0,45:12.0,44:00.0,27:54.0,50,46.4,87.37,30.35,KSEA 061650Z 01003KT 2SM R16L/1200VP6000FT BR BKN001 BKN250 10/08 A3035 RMK AO2 VIS W 3/4,81,39.9,23.13,30.03,KSJC 061953Z 00000KT 10SM FEW080 SCT160 27/04 A3003 RMK AO2 SLP168 T02720044 $,,239801,C,7/11/2019,10/8/2019
N120DU,N,,BD-500-1A10 (A220-100),50039,00:00.0,DL838,Santa Clara,KSJC,SeaTac,KSEA,23:00.0,27:55.0,40:00.0,25:04.0,81,39.9,23.13,30.03,KSJC 061953Z 00000KT 10SM FEW080 SCT160 27/04 A3003 RMK AO2 SLP168 T02720044 $,62.1,45,53.45,30.25,KSEA 062153Z 30007KT 10SM FEW120 BKN240 17/07 A3025 RMK AO2 SLP252 T01670072,,239801,C,7/11/2019,10/8/2019
VP-BVV,Y,28,737-73U(W) (BBJ),29200,00:00.0,J29103,Q@b@l@,UBBQ,Pendik,LTFJ,45:00.0,13:50.0,35:00.0,31:36.0,,,,,,57.2,55.4,93.69,29.85,LTFJ 060620Z 18003KT 150V210 9999 -SHRA SCT008 BKN030 BKN090 14/13 Q1011 NOSIG,,30949,C,3/1/1999,10/8/2019
VP-BVV,N,,737-73U(W) (BBJ),29200,00:00.0,J29104,Pendik,LTFJ,Q@b@l@,UBBQ,35:00.0,43:54.0,20:00.0,34:40.0,60.8,53.6,77.14,29.85,LTFJ 060750Z VRB03KT 9999 SCT020TCU SCT030 BKN090 16/12 Q1011 NOSIG,,,,,,,30949,C,3/1/1999,10/8/2019
VP-BVV,,,737-73U(W) (BBJ),29200,00:00.0,,Q@b@l@,UBBQ,Tokat Merkez,LTAW,,24:50.0,,49:36.0,,,,,,,,,,,,30949,C,3/1/1999,10/8/2019
N121DU,N,,BD-500-1A10 (A220-100),50040,00:00.0,DL2471,Salt Lake City,KSLC,Houston,KIAH,00:00.0,08:56.0,51:00.0,31:49.0,57.9,27,30.43,30.21,KSLC 052354Z 33013KT 10SM FEW180 FEW250 14/M03 A3021 RMK AO2 SLP216 T01441028 10161 20117 56008,80.1,71.1,74.07,29.92,KIAH 060153Z 15003KT 10SM CLR 27/22 A2992 RMK AO2 SLP131 T02670217,,242583,C,7/22/2019,10/8/2019
N121DU,Y,31,BD-500-1A10 (A220-100),50040,00:00.0,DL1899,Houston,KIAH,Salt Lake City,KSLC,27:00.0,58:24.0,42:00.0,58:18.0,89.1,71.1,55.46,29.99,KIAH 061753Z 13008KT 10SM SCT036 SCT250 32/22 A2999 RMK AO2 SLP154 T03170217 10317 20222 58005,60.1,30,31.8,30.41,KSLC 062054Z 01006KT 10SM CLR 16/M01 A3041 RMK AO2 SLP283 T01561011 58013,,242583,C,7/22/2019,10/8/2019
N887LS,,,737-74U(W) (BBJ),29233,00:00.0,,,VMMC,Melaka,WMKM,,03:48.0,,25:41.0,77,75.2,94.19,29.91,VMMC 060700Z 11018KT 9000 -SHRA FEW009 FEW015CB SCT025 25/24 Q1013 TEMPO 4000 SHRA,,,,,,,30960,B,1/7/1999,10/8/2019
N887LS,,,737-74U(W) (BBJ),29233,00:00.0,,Melaka,WMKM,Singapore,WSSL,,08:52.0,,40:22.0,,,,,,,,,,,,30960,B,1/7/1999,10/8/2019
N122DU,N,,BD-500-1A10 (A220-100),50041,00:00.0,DL1056,Costa Mesa,KSNA,Salt Lake City,KSLC,50:00.0,56:46.0,37:00.0,02:52.0,77,53.1,43.44,29.95,KSNA 052353Z 24006KT 10SM FEW015 FEW300 25/12 A2995 RMK AO2 SLP141 FU FEW015 T02500117 10272 20239 56012,46.9,33.1,58.47,30.28,KSLC 060454Z 33004KT 10SM FEW090 08/01 A3028 RMK AO2 SLP240 T00830006,,242584,C,8/20/2019,10/8/2019
N122DU,Y,21,BD-500-1A10 (A220-100),50041,00:00.0,DL2505,Salt Lake City,KSLC,Houston,KIAH,35:00.0,56:49.0,34:00.0,25:18.0,48.9,28,44.1,30.47,KSLC 061554Z 00000KT 10SM CLR 09/M02 A3047 RMK AO2 SLP305 T00941022,90,71.1,53.91,29.97,KIAH 061853Z 09007KT 10SM SCT039 SCT250 32/22 A2997 RMK AO2 SLP146 T03220217,,242584,C,8/20/2019,10/8/2019
A6-HRS,,,737-7E0(W) (BBJ),29251,00:00.0,No Arrivals Today,Sibi,,Sibi,,59:00.0,59:00.0,59:00.0,59:00.0,,,,,,,,,,,,30970,C,10/22/1998,10/8/2019
N123DQ,N,,BD-500-1A10 (A220-100),50042,00:00.0,DL1899,Houston,KIAH,Salt Lake City,KSLC,15:00.0,29:03.0,21:00.0,40:59.0,,,,,,43,35.1,73.45,30.32,KSLC 060654Z 24004KT 10SM FEW120 06/02 A3032 RMK AO2 SLP251 T00610017 401610028,,242585,C,9/7/2019,10/8/2019
N123DQ,N,,BD-500-1A10 (A220-100),50042,00:00.0,DL1949,Salt Lake City,KSLC,Costa Mesa,KSNA,40:00.0,54:17.0,35:00.0,18:26.0,44.1,27,50.73,30.45,KSLC 061454Z 12006KT 10SM CLR 07/M03 A3045 RMK AO2 SLP303 T00671028 53017,66.9,53.1,61.16,30.02,KSNA 061553Z 00000KT 10SM CLR 19/12 A3002 RMK AO2 SLP164 T01940117,,242585,C,9/7/2019,10/8/2019
N123DQ,Y,96,BD-500-1A10 (A220-100),50042,00:00.0,DL1949,Costa Mesa,KSNA,Salt Lake City,KSLC,20:00.0,56:20.0,09:00.0,31:55.0,82.9,46.9,28.43,30,KSNA 061853Z 00000KT 10SM CLR 28/08 A3000 RMK AO2 SLP159 T02830083,60.1,30,31.8,30.41,KSLC 062054Z 01006KT 10SM CLR 16/M01 A3041 RMK AO2 SLP283 T01561011 58013,,242585,C,9/7/2019,10/8/2019
A6-AIN,,,737-7Z5(W) (BBJ),29268,00:00.0,No Arrivals Today,Abu Dhabi,OMAA,Abu Dhabi,OMAA,59:00.0,59:00.0,59:00.0,59:00.0,,,,,,,,,,,,30975,C,4/27/1999,10/8/2019
A6-RJZ,,,737-7Z5(W) (BBJ),29269,00:00.0,No Arrivals Today,Abu Dhabi,OMAA,Abu Dhabi,OMAA,59:00.0,59:00.0,59:00.0,59:00.0,,,,,,,,,,,,30976,C,11/3/1999,10/8/2019
N124DU,N,,BD-500-1A10 (A220-100),50043,00:00.0,DL347,New York,KJFK,Grapevine,KDFW,20:00.0,31:13.0,23:00.0,47:21.0,,,,,,82.9,63,51.1,29.9,KDFW 060153Z 13007KT 10SM CLR 28/17 A2990 RMK AO2 SLP117 T02830172,,242586,C,9/15/2019,10/8/2019
N124DU,N,,BD-500-1A10 (A220-100),50043,00:00.0,DL2914,Grapevine,KDFW,Romulus,KDTW,00:00.0,09:48.0,38:00.0,32:25.0,88,63,43.4,29.99,KDFW 061553Z 21013KT 10SM FEW095 BKN120 31/17 A2999 RMK AO2 SLP144 T03110172,70,50,49.03,30.04,KDTW 061853Z 26013G19KT 10SM FEW040 SCT150 BKN250 21/10 A3004 RMK AO2 SLP172 T02110100,,242586,C,9/15/2019,10/8/2019
N125DU,,,BD-500-1A10 (A220-100),50044,00:00.0,No Arrivals Today,College Park,KATL,College Park,KATL,59:00.0,59:00.0,59:00.0,59:00.0,,,,,,,,,,,,242587,C,9/24/2019,10/8/2019
VP-BBJ,,,737-72U(W) (BBJ),29273,00:00.0,No Arrivals Today,Cape Town,FACT,Cape Town,FACT,59:00.0,59:00.0,59:00.0,59:00.0,,,,,,,,,,,,30979,B,10/15/1998,10/8/2019
VP-BWR,,,737-79T(W) (BBJ),29317,00:00.0,,Otopeni,LROP,Bonneuil-en-France,LFPB,,59:27.0,,18:18.0,62.6,48.2,59.26,29.83,LROP 061200Z 29011KT 9999 SCT034 17/09 Q1010 NOSIG,62.6,46.4,55.37,29.88,LFPB 061530Z AUTO 29013KT 260V330 9999 FEW042/// ///CB 17/08 Q1012 TEMPO 28015G25KT 4000 SHRA,,30988,B,4/8/1999,10/8/2019
VP-BWR,,,737-79T(W) (BBJ),29317,00:00.0,,Bonneuil-en-France,LFPB,Essex,EGSS,,05:53.0,,25:34.0,62.6,48.2,59.26,29.88,LFPB 061600Z AUTO 29012G23KT 260V330 9999 FEW033 SCT120 17/09 Q1012 TEMPO 4000 SHRA SCT020CB,57.2,48.2,71.83,29.88,EGSS 061720Z AUTO 31010KT 9999 SCT031 BKN040 BKN048 14/09 Q1012,,30988,B,4/8/1999,10/8/2019
SU-GEX,Y,31,BD-500-1A11 (A220-300),55058,00:00.0,MS361,Qism El-Nozha,HECA,Luxor,HELX,00:00.0,31:43.0,05:00.0,42:53.0,71.6,66.2,83.09,29.88,HECA 060430Z 02004KT CAVOK 22/19 Q1012 NOSIG,82.4,48.2,30.35,29.77,HELX 060500Z 00000KT CAVOK 28/09 Q1008 NOSIG,,239816,C,8/22/2019,10/8/2019
SU-GEX,Y,72,BD-500-1A11 (A220-300),55058,00:00.0,MS362,Luxor,HELX,Qism El-Nozha,HECA,35:00.0,47:47.0,45:00.0,00:51.0,87.8,55.4,33.29,29.8,HELX 060700Z 28002KT 6000 NSC 31/13 Q1009 NOSIG,78.8,64.4,61.36,29.91,HECA 060700Z 02005KT CAVOK 26/18 Q1013 NOSIG,,239816,C,8/22/2019,10/8/2019
SU-GEX,Y,35,BD-500-1A11 (A220-300),55058,00:00.0,MS751,Qism El-Nozha,HECA,Budapest,LHBP,35:00.0,10:54.0,55:00.0,12:20.0,87.8,62.6,43.07,29.91,HECA 061000Z 01008KT CAVOK 31/17 Q1013 NOSIG,55.4,39.2,54.34,30,LHBP 061300Z 30005KT 260V340 9999 BKN042 13/04 Q1016 NOSIG,,239816,C,8/22/2019,10/8/2019
SU-GEX,Y,22,BD-500-1A11 (A220-300),55058,00:00.0,MS752,Budapest,LHBP,Qism El-Nozha,HECA,40:00.0,02:49.0,55:00.0,40:51.0,55.4,41,58.27,30,LHBP 061400Z 22007KT 9999 BKN043 13/05 Q1016 NOSIG,84.2,62.6,48.32,29.85,HECA 061630Z 35009KT CAVOK 29/17 Q1011 NOSIG,,239816,C,8/22/2019,10/8/2019
N788DP,,,737-79U(W) (BBJ),29441,00:00.0,,Guayaquil,SEGU,,,,01:22.0,,24:24.0,71.6,66.2,83.09,29.88,SEGU 061200Z 21008KT 9999 FEW010 BKN030 22/19 Q1012 NOSIG RMK A2990,,,,,,,31042,C,8/18/1998,10/8/2019
N788DP,,,737-79U(W) (BBJ),29441,00:00.0,,,,Guayaquil,SEGU,,38:35.0,,05:50.0,,,,,,82.4,68,61.81,29.88,SEGU 061600Z 17005KT 080V270 9999 SCT030 SCT100 28/20 Q1012 NOSIG RMK A2990,,31042,C,8/18/1998,10/8/2019
N788DP,,,737-79U(W) (BBJ),29441,00:00.0,,Guayaquil,SEGU,Callao,SPJC,,50:16.0,,48:32.0,86,69.8,58.55,29.77,SEGU 062200Z 16008KT 9999 FEW033 30/21 Q1008 NOSIG RMK A2977,62.6,57.2,82.5,29.94,SPJC 062300Z 18008KT 9999 OVC017 17/14 Q1014 NOSIG RMK PP000,,31042,C,8/18/1998,10/8/2019
SU-GEY,Y,33,BD-500-1A11 (A220-300),55059,00:00.0,MS461,Qism El-Nozha,HECA,Qesm Hurghada,HEGN,15:00.0,48:50.0,20:00.0,51:06.0,87.8,62.6,43.07,29.91,HECA 061000Z 01008KT CAVOK 31/17 Q1013 NOSIG,87.8,50,27.29,29.8,HEGN 061000Z 34009KT 9999 SCT025 BKN100 31/10 Q1009 NOSIG,,239817,C,9/21/2019,10/8/2019
SU-GEY,Y,38,BD-500-1A11 (A220-300),55059,00:00.0,MS462,Qesm Hurghada,HEGN,Qism El-Nozha,HECA,50:00.0,28:22.0,55:00.0,34:51.0,89.6,51.8,27.56,29.8,HEGN 061100Z 33007KT 9999 FEW025 BKN100 32/11 Q1009 NOSIG,89.6,62.6,40.69,29.88,HECA 061130Z 02007KT CAVOK 32/17 Q1012 NOSIG,,239817,C,9/21/2019,10/8/2019
SU-GEY,Y,28,BD-500-1A11 (A220-300),55059,00:00.0,MS321,Qism El-Nozha,HECA,Qesm Sharm Ash Sheikh,HESH,30:00.0,58:24.0,30:00.0,08:04.0,78.8,64.4,61.36,29.91,HECA 061900Z 35008KT CAVOK 26/18 Q1013 NOSIG,,,,,,,239817,C,9/21/2019,10/8/2019
SU-GEY,,,BD-500-1A11 (A220-300),55059,00:00.0,,Qesm Sharm Ash Sheikh,HESH,Qism El-Nozha,HECA,,29:54.0,,43:32.0,,,,,,77,64.4,65.12,29.91,HECA 062030Z 01008KT CAVOK 25/18 Q1013 NOSIG,,239817,C,9/21/2019,10/8/2019
N888TY,,,737-7AH(W) (BBJ),29749,00:00.0,No Arrivals Today,Latrobe,KLBE,Latrobe,KLBE,59:00.0,59:00.0,59:00.0,59:00.0,,,,,,,,,,,,31210,B,12/6/1999,10/8/2019
VP-BJB,,,BD-500-1A11 (A220-300),55056,00:00.0,STORED,Maastricht,EHBK,Maastricht,EHBK,59:00.0,59:00.0,59:00.0,59:00.0,,,,,,,,,,,,239814,C,8/4/2019,10/8/2019
P4-ASL,,,737-7BH(W) (BBJ),29791,00:00.0,No Arrivals Today,Riyadh,OERK,Riyadh,OERK,59:00.0,59:00.0,59:00.0,59:00.0,,,,,,,,,,,,31241,B,7/7/1999,10/8/2019
VP-BJC,,,BD-500-1A11 (A220-300),55057,00:00.0,STORED,Maastricht,EHBK,Maastricht,EHBK,59:00.0,59:00.0,59:00.0,59:00.0,,,,,,,,,,,,239815,C,9/9/2019,10/8/2019
A6-RJY,,,737-7Z5(W) (BBJ),29857,00:00.0,No Arrivals Today,Abu Dhabi,OMAA,Abu Dhabi,OMAA,59:00.0,59:00.0,59:00.0,59:00.0,,,,,,,,,,,,31303,C,11/18/1999,10/8/2019
YL-AAO,,,BD-500-1A11 (A220-300),55050,00:00.0,,Munchen,EDDM,Colombier-Saugnieu,LFLL,,49:52.0,,11:08.0,48.2,42.8,81.47,30.06,EDDM 060850Z 09005KT 9999 FEW010 09/06 Q1018 NOSIG,64.4,53.6,67.95,30.03,LFLL 061000Z 13004KT 080V170 9999 FEW018 SCT056 18/12 Q1017 NOSIG,,239809,C,3/4/2019,10/8/2019
